UITMSAT-1               
1 43589U 98067PD  19169.73558003  .00008850  00000-0  10623-3 0  9992
2 43589  51.6368 342.5747 0005826 151.8522 208.2788 15.61748388 48757
MAYA-1                  
1 43590U 98067PE  19169.73067858  .00008762  00000-0  10516-3 0  9990
2 43590  51.6370 342.5461 0005879 152.1752 207.9558 15.61768169 48684
BHUTAN-1                
1 43591U 98067PF  19169.72134465  .00008767  00000-0  10499-3 0  9994
2 43591  51.6380 342.5028 0005969 152.4117 207.7194 15.61824841 48687
SIRIUSSAT-1             
1 43595U 98067PG  19169.70751687  .00007957  00000-0  98789-4 0  9996
2 43595  51.6371 343.8902 0003912 113.4789 246.6616 15.61032917 47847
SIRIUSSAT-2             
1 43596U 98067PH  19169.73790885  .00008147  00000-0  10161-3 0  9992
2 43596  51.6380 344.1266 0004468 114.0159 246.1302 15.60872007 47848
TANUSHA-3               
1 43597U 98067PJ  19169.73549931  .00010015  00000-0  11660-3 0  9999
2 43597  51.6363 342.5519 0003992 128.9904 231.1446 15.62377793 47865
SURFSAT                 
1 43614U 18070B   19169.85781658  .00001458  00000-0  39743-4 0  9996
2 43614  93.0223   3.7419 0013832 312.3526  47.6555 15.37518697 42439
CP7 (DAVE)              
1 43615U 18070C   19169.79845615  .00001361  00000-0  37214-4 0  9998
2 43615  93.0227   3.7188 0014026 311.7796  48.2258 15.37441598 42426
ELFIN-B                 
1 43616U 18070D   19169.74116321  .00002183  00000-0  58387-4 0  9996
2 43616  93.0188   3.6093 0014888 316.0450  43.9618 15.38051404 42424
ELFIN-A                 
1 43617U 18070E   19169.80008458  .00002014  00000-0  53834-4 0  9990
2 43617  93.0245   3.8490 0013999 312.5567  47.4504 15.38090929 42433
CUBEBEL-1 (BSUSAT-1)    
1 43666U 18083E   19169.89000207  .00000575  00000-0  31978-4 0  9996
2 43666  97.5197 194.3682 0015062 181.0880 300.9157 15.17573854 35311
DEBRISSAT-2             
1 43680U 98067PR  19169.97409434  .00014727  00000-0  16378-3 0  9996
2 43680  51.6398 341.1747 0004920 153.5316 206.5932 15.63119978 56649
CICERO 10               
1 43690U 18088A   19169.89033423  .00000803  00000-0  35724-4 0  9991
2 43690  85.0372 318.3747 0014272 198.9421 161.1291 15.19652015 33385
IRVINE01                
1 43693U 18088D   19169.87811653  .00001652  00000-0  71649-4 0  9990
2 43693  85.0348 317.9915 0018174 185.4084 174.6964 15.21368401 33397
PROXIMA I               
1 43694U 18088E   19169.90208768  .00000709  00000-0  29664-4 0  9994
2 43694  85.0316 317.8100 0019507 176.9249 183.2116 15.21378549 33419
PROXIMA II              
1 43696U 18088G   19169.90123167  .00000697  00000-0  29132-4 0  9991
2 43696  85.0317 317.8115 0019539 176.8766 183.2601 15.21383990 33400
FACSAT-1                
1 43721U 18096C   19169.86647314  .00000880  00000-0  36705-4 0  9997
2 43721  97.4596 239.7316 0017112 334.3223  25.7164 15.26282915 30764
CENTAURI-2              
1 43722U 18096D   19169.71587974  .00001146  00000-0  46622-4 0  9992
2 43722  97.4598 239.6260 0017287 335.5745  24.4672 15.26498986 30733
INNOSAT-2               
1 43738U 18096V   19169.90865844  .00001425  00000-0  53534-4 0  9995
2 43738  97.4601 240.4405 0023880 345.3836  14.6710 15.28645465 30813
SIRION PATHFINDER-2     
1 43759U 18099B   19169.85270817 -.00000196  00000-0 -12531-4 0  9993
2 43759  97.7449 241.8359 0013406 325.0885  34.9455 14.95126989 29451
CORVUS-BC 4             
1 43767U 18099K   19169.85885643  .00000030  00000-0  80926-5 0  9990
2 43767  97.7435 241.6370 0010927 329.6208  30.4378 14.94570229 29443
SHIELDS 1               
1 43850U 18104B   19169.64663148  .00000041  00000-0  00000+0 0  9992
2 43850  85.0304  56.4868 0014150 339.6843  20.3834 15.21080154 28014
STF-1                   
1 43852U 18104D   19169.65196224  .00000041  00000-0  00000-0 0  9992
2 43852  85.0346  56.7054 0014310 353.2767   6.8284 15.20597584 28003
ZACUBE-2                
1 43907U 18111AH  19170.09212103  .00000368  00000-0  17898-4 0  9995
2 43907  97.2907  75.3165 0020643 353.8306 128.2673 15.24185517 26500
LUME 1                  
1 43908U 18111AJ  19169.73456548  .00000693  00000-0  31062-4 0  9998
2 43908  97.2904  74.9855 0021576 356.2354   3.8718 15.24327482 26456
AOBA VELOX-IV           
1 43940U 19003J   19169.81389840  .00001333  00000-0  57739-4 0  9995
2 43940  97.2771 227.7219 0026444  72.7073  20.5195 15.23793336 23101
CATSAT-2                
1 44029U 98067PV  19169.73956272  .00006000  00000-0  90156-4 0  9997
2 44029  51.6400 350.8894 0005488 143.9305 216.2058 15.56399129 21584
DELPHINI                
1 44030U 98067PW  19169.79827562  .00006587  00000-0  97824-4 0  9993
2 44030  51.6390 350.5221 0005153 143.8559 216.2782 15.56532314 21561
UNITE                   
1 44031U 98067PX  19169.77020468  .00004264  00000-0  67844-4 0  9991
2 44031  51.6397 351.0868 0003801 137.5996 222.5290 15.55657272 21558
TECHEDSAT 8             
1 44032U 98067PY  19169.79444418  .00014828  00000-0  18866-3 0  9995
2 44032  51.6389 348.9988 0004137 145.5471 214.5791 15.59592290 21568
CATSAT-1                
1 44033U 98067PZ  19169.67527948  .00006080  00000-0  91233-4 0  9994
2 44033  51.6401 351.2105 0005280 143.1255 217.0100 15.56407844 21486
